[{"OBJECT_NAME":"STARLINK-4390","OBJECT_ID":"2022-105F","EPOCH":"2026-03-09T15:44:45.266208","MEAN_MOTION":15.01279333,"ECCENTRICITY":0.000187,"INCLINATION":97.6025,"RA_OF_ASC_NODE":310.125,"ARG_OF_PERICENTER":49.5076,"MEAN_ANOMALY":310.6311,"EPHEMERIS_TYPE":0,"CLASSIFICATION_TYPE":"U","NORAD_CAT_ID":53653,"ELEMENT_SET_NO":999,"REV_AT_EPOCH":19322,"BSTAR":-0.00023328,"MEAN_MOTION_DOT":-3.055e-5,"MEAN_MOTION_DDOT":0},{"OBJECT_NAME":"SL-16 DEB","OBJECT_ID":"1992-093LA","EPOCH":"2026-02-20T04:21:44.148672","MEAN_MOTION":14.94798833,"ECCENTRICITY":0.00217312,"INCLINATION":71.2188,"RA_OF_ASC_NODE":0.2564,"ARG_OF_PERICENTER":24.1632,"MEAN_ANOMALY":336.0549,"EPHEMERIS_TYPE":0,"CLASSIFICATION_TYPE":"U","NORAD_CAT_ID":39848,"ELEMENT_SET_NO":999,"REV_AT_EPOCH":60757,"BSTAR":0.0046757079,"MEAN_MOTION_DOT":0.00051467,"MEAN_MOTION_DDOT":0}]
